ONEWEB-0113             
1 48050U 21025J   23011.53220753  .00000281  00000+0  73364-3 0  9997
2 48050  87.9022 209.1668 0001707  85.1471 274.9853 13.13468211 89140
ONEWEB-0112             
1 48051U 21025K   23011.51952157  .00000212  00000+0  54661-3 0  9999
2 48051  87.9018 209.1285 0001504  90.8412 269.2889 13.13472114 89169
ONEWEB-0156             
1 48052U 21025L   23011.53009058  .00000351  00000+0  92657-3 0  9996
2 48052  87.9021 209.1495 0001499  90.1355 269.9946 13.13471954 89149
ONEWEB-0161             
1 48053U 21025M   23011.50257116 -.00000205  00000+0 -59654-3 0  9994
2 48053  87.9022 209.1368 0001292  87.7569 272.3708 13.13468084 89065
ONEWEB-0158             
1 48054U 21025N   23011.54278488  .00000211  00000+0  54170-3 0  9997
2 48054  87.9025 209.1546 0001883  87.4676 272.6669 13.13467704 89190
ONEWEB-0157             
1 48055U 21025P   23011.56606421 -.00000270  00000+0 -77550-3 0  9996
2 48055  87.9047 209.1119 0001211  91.7586 268.3682 13.13468976 89148
ONEWEB-0162             
1 48056U 21025Q   23011.52797447  .00000292  00000+0  76410-3 0  9998
2 48056  87.9017 209.1271 0001501  92.1393 267.9908 13.13471360 89101
ONEWEB-0155             
1 48057U 21025R   23011.54914881  .00000061  00000+0  13222-3 0  9990
2 48057  87.9021 209.1249 0001497  85.7113 274.4188 13.13468145 89250
ONEWEB-0149             
1 48058U 21025S   23011.57028546 -.00000281  00000+0 -80384-3 0  9997
2 48058  87.9020 209.1208 0001495 107.7938 252.3354 13.13470513 89064
ONEWEB-0148             
1 48059U 21025T   23011.53432389  .00000311  00000+0  81800-3 0  9994
2 48059  87.9019 209.1329 0001110 124.5581 235.5653 13.13470615 89172
ONEWEB-0160             
1 48060U 21025U   23011.55125070  .00000071  00000+0  15858-3 0  9997
2 48060  87.9019 209.1282 0002698  90.0451 270.0988 13.13469118 89123
ONEWEB-0163             
1 48061U 21025V   23011.53643554  .00000340  00000+0  89619-3 0  9993
2 48061  87.8955 209.1263 0001044  83.6836 276.4412 13.13468206 89253
ONEWEB-0159             
1 48062U 21025W   23011.52585516  .00000290  00000+0  75877-3 0  9991
2 48062  87.9026 209.1385 0000985  92.6848 267.4394 13.13472210 89164
ONEWEB-0164             
1 48063U 21025X   23011.50681974 -.00000121  00000+0 -36578-3 0  9995
2 48063  87.8930 209.1303 0001633  78.2653 281.8659 13.13471452 89153
ONEWEB-0167             
1 48064U 21025Y   23011.53749945  .00000319  00000+0  83756-3 0  9999
2 48064  87.9047 209.1196 0001138  90.8985 269.2274 13.13467041 89132
ONEWEB-0166             
1 48065U 21025Z   23011.55970766 -.00000139  00000+0 -41689-3 0  9990
2 48065  87.9017 209.1214 0001300  97.8819 262.2458 13.13470253 89210
ONEWEB-0151             
1 48066U 21025AA  23011.56183787 -.00000192  00000+0 -56123-3 0  9999
2 48066  87.9018 209.1219 0001641  79.0008 281.1306 13.13471647 89161
ONEWEB-0170             
1 48067U 21025AB  23011.56818362 -.00000282  00000+0 -80582-3 0  9990
2 48067  87.8955 209.1316 0002240  74.7922 285.3455 13.13472118 89112
ONEWEB-0168             
1 48068U 21025AC  23011.55336599 -.00000002  00000+0 -41031-4 0  9994
2 48068  87.9023 209.1563 0001387  91.2508 268.8780 13.13471409 89129
ONEWEB-0173             
1 48069U 21025AD  23011.54701396  .00000123  00000+0  30172-3 0  9990
2 48069  87.9024 209.1694 0001214  67.3797 292.7460 13.13466932 89361
ONEWEB-0171             
1 48070U 21025AE  23011.50469703 -.00000169  00000+0 -49899-3 0  9999
2 48070  87.9026 209.1369 0001334  94.0128 266.1154 13.13469035 89173
ONEWEB-0172             
1 48071U 21025AF  23011.56290129 -.00000275  00000+0 -78782-3 0  9991
2 48071  87.8981 209.1328 0001449  72.0948 288.0339 13.13469689 90075
ONEWEB-0174             
1 48072U 21025AG  23011.54488428  .00000131  00000+0  32471-3 0  9995
2 48072  87.9012 209.1402 0001363 115.3300 244.7970 13.13473005 89393
ONEWEB-0175             
1 48073U 21025AH  23011.49623362 -.00000239  00000+0 -68828-3 0  9994
2 48073  87.9020 209.1327 0001859  74.3033 285.8302 13.13469965 89043
ONEWEB-0177             
1 48074U 21025AJ  23011.50892892 -.00000112  00000+0 -34223-3 0  9995
2 48074  87.8980 209.1396 0000837  71.4182 288.7037 13.13471845 89230
ONEWEB-0178             
1 48075U 21025AK  23011.52689634  .00000287  00000+0  75182-3 0  9996
2 48075  87.9021 209.1307 0001181  88.6168 271.5097 13.13464933 89288
ONEWEB-0108             
1 48076U 21025AL  23011.56394520 -.00000248  00000+0 -71487-3 0  9991
2 48076  87.9018 209.1205 0001652  96.8195 263.3122 13.13470955 89229
ONEWEB-0169             
1 48077U 21025AM  23011.51739926  .00000121  00000+0  29692-3 0  9999
2 48077  87.8952 209.1308 0001599 103.3267 256.8040 13.13470951 89103
ONEWEB-0176             
1 48210U 21031A   23011.50781328  .00000007  00000+0 -15155-4 0  9991
2 48210  87.9082 178.8335 0001313  92.7652 267.3627 13.14505525 83741
ONEWEB-0184             
1 48211U 21031B   23011.48243460 -.00000156  00000+0 -45572-3 0  9990
2 48211  87.9089 178.8118 0002109  58.5528 301.5808 13.14499624 83715
ONEWEB-0179             
1 48212U 21031C   23011.52684294  .00000268  00000+0  68773-3 0  9990
2 48212  87.9083 178.8022 0001085  96.7994 263.3259 13.14501350 83767
ONEWEB-0180             
1 48213U 21031D   23011.48456325 -.00000163  00000+0 -47472-3 0  9997
2 48213  87.9090 178.8075 0001233  97.7345 262.3925 13.14504528 83646
ONEWEB-0218             
1 48214U 21031E   23011.50569671  .00000007  00000+0 -15623-4 0  9990
2 48214  87.9084 178.8131 0001728  45.1402 314.9867 13.14499641 83809
ONEWEB-0209             
1 48215U 21031F   23011.49513613 -.00000163  00000+0 -47361-3 0  9991
2 48215  87.9087 178.8457 0001287  96.5330 263.5946 13.14504943 83803
ONEWEB-0198             
1 48216U 21031G   23011.48033857 -.00000175  00000+0 -50775-3 0  9994
2 48216  87.9082 178.8597 0001198  68.4145 291.7112 13.14501383 83912
ONEWEB-0189             
1 48217U 21031H   23011.49302124 -.00000130  00000+0 -38380-3 0  9991
2 48217  87.9081 178.8440 0001130  73.8184 286.3070 13.14502219 83651
ONEWEB-0196             
1 48218U 21031J   23011.54798277 -.00000006  00000+0 -50677-4 0  9992
2 48218  87.9088 178.8181 0001449  86.2933 273.8363 13.14500609 83662
ONEWEB-0183             
1 48219U 21031K   23011.52051698  .00000235  00000+0  59901-3 0  9990
2 48219  87.9087 178.8430 0001379  99.8997 260.2288 13.14502184 83757
ONEWEB-0185             
1 48220U 21031L   23011.47291940 -.00000056  00000+0 -18481-3 0  9993
2 48220  87.9088 178.8294 0001275  97.5602 262.5673 13.14505282 83677
ONEWEB-0187             
1 48221U 21031M   23011.52369862  .00000629  00000+0  16614-2 0  9998
2 48221  87.9087 178.8439 0001254  97.2098 262.9174 13.14504463 83693
ONEWEB-0192             
1 48222U 21031N   23011.49725277 -.00000126  00000+0 -37403-3 0  9995
2 48222  87.9086 178.7953 0001396  84.4985 275.6303 13.14504623 83607
ONEWEB-0219             
1 48223U 21031P   23011.47820491 -.00000117  00000+0 -35061-3 0  9996
2 48223  87.9086 178.8369 0001212  97.6370 262.4897 13.14500719 83807
ONEWEB-0202             
1 48224U 21031Q   23011.53318676  .00000241  00000+0  61431-3 0  9997
2 48224  87.9088 178.8432 0001334  43.8021 316.3214 13.14500402 83791
ONEWEB-0204             
1 48225U 21031R   23011.51734924  .00000251  00000+0  64357-3 0  9995
2 48225  87.9084 178.8717 0001994 107.5089 252.6259 13.14503702 83683
ONEWEB-0205             
1 48226U 21031S   23011.46765594  .00000018  00000+0  13938-4 0  9998
2 48226  87.9087 178.8355 0001145  82.4038 277.7222 13.14501045 83695
ONEWEB-0206             
1 48227U 21031T   23011.51627509  .00000219  00000+0  55708-3 0  9991
2 48227  87.9085 178.8120 0001252 104.9905 255.1363 13.14504556 83658
ONEWEB-0182             
1 48228U 21031U   23011.50992927  .00000082  00000+0  18635-3 0  9996
2 48228  87.9086 178.8874 0001214 100.1399 259.9868 13.14504964 83867
ONEWEB-0186             
1 48229U 21031V   23011.52260162  .00000250  00000+0  64044-3 0  9990
2 48229  87.9087 178.7973 0001230  90.1092 270.0179 13.14505502 83817
ONEWEB-0181             
1 48230U 21031W   23011.49936865 -.00000089  00000+0 -27561-3 0  9993
2 48230  87.9088 178.8707 0001424  88.1023 272.0270 13.14504430 83668
ONEWEB-0188             
1 48231U 21031X   23011.53954636  .00000110  00000+0  26201-3 0  9998
2 48231  87.9088 178.8640 0001287  96.8958 263.2318 13.14500779 83572
ONEWEB-0220             
1 48232U 21031Y   23011.50147473 -.00000071  00000+0 -22514-3 0  9990
2 48232  87.9089 178.8305 0001029 100.0885 260.0361 13.14502931 83837
ONEWEB-0165             
1 48233U 21031Z   23011.53108733  .00000181  00000+0  45458-3 0  9992
2 48233  87.9089 178.8469 0001136  89.5303 270.5957 13.14503412 83791
ONEWEB-0199             
1 48234U 21031AA  23011.59028980  .00000128  00000+0  30986-3 0  9995
2 48234  87.9084 178.8104 0001263  92.4286 267.6988 13.14504788 83706
ONEWEB-0203             
1 48235U 21031AB  23011.50359802 -.00000024  00000+0 -10046-3 0  9999
2 48235  87.9086 178.8236 0001806  82.1759 277.9576 13.14504934 83709
ONEWEB-0197             
1 48236U 21031AC  23011.49090550 -.00000228  00000+0 -65024-3 0  9992
2 48236  87.9088 178.8359 0001352  92.0032 268.1252 13.14502130 83617
ONEWEB-0194             
1 48237U 21031AD  23011.53530806  .00000122  00000+0  29462-3 0  9998
2 48237  87.9089 178.8168 0001911  88.9284 271.2065 13.14500681 83796
ONEWEB-0193             
1 48238U 21031AE  23011.47610876 -.00000093  00000+0 -28629-3 0  9991
2 48238  87.9085 178.8388 0001453  83.3380 276.7915 13.14502087 83734
ONEWEB-0191             
1 48239U 21031AF  23011.48667774 -.00000183  00000+0 -52720-3 0  9991
2 48239  87.9087 178.8180 0001573  88.8534 271.2776 13.14503961 83592
ONEWEB-0195             
1 48240U 21031AG  23011.54057344  .00001918  00000+0  51385-2 0  9996
2 48240  87.9087 178.8022 0000970  81.4397 278.6843 13.14498644 83581
